[{"OBJECT_NAME":"FORMOSAT 7-5","OBJECT_ID":"2019-036V","EPOCH":"2026-03-09T18:30:55.543680","MEAN_MOTION":14.96027232,"ECCENTRICITY":8.716e-5,"INCLINATION":23.9972,"RA_OF_ASC_NODE":218.3817,"ARG_OF_PERICENTER":89.5193,"MEAN_ANOMALY":270.5408,"EPHEMERIS_TYPE":0,"CLASSIFICATION_TYPE":"U","NORAD_CAT_ID":44358,"ELEMENT_SET_NO":999,"REV_AT_EPOCH":36744,"BSTAR":0.00030916132,"MEAN_MOTION_DOT":3.857e-5,"MEAN_MOTION_DDOT":0},{"OBJECT_NAME":"STARLINK-5825","OBJECT_ID":"2023-028AU","EPOCH":"2026-03-09T21:39:59.898240","MEAN_MOTION":14.98334631,"ECCENTRICITY":0.00032006,"INCLINATION":70.0011,"RA_OF_ASC_NODE":204.0994,"ARG_OF_PERICENTER":268.1655,"MEAN_ANOMALY":91.9138,"EPHEMERIS_TYPE":0,"CLASSIFICATION_TYPE":"U","NORAD_CAT_ID":55783,"ELEMENT_SET_NO":999,"REV_AT_EPOCH":16705,"BSTAR":-0.00011912942,"MEAN_MOTION_DOT":-1.514e-5,"MEAN_MOTION_DDOT":0}]
